STARLETTE               
1 07646U 75010A   22341.83342304 -.00000138  00000+0  47053-5 0  9991
2 07646  49.8215 145.8804 0205775 130.2980 231.6098 13.82315222416462
LAGEOS 1                
1 08820U 76039A   22341.27662247 -.00000012  00000+0  00000+0 0  9993
2 08820 109.8499  98.2020 0045153 218.2242 159.6547  6.38664983830898
AJISAI (EGS)            
1 16908U 86061A   22342.23340708 -.00000103  00000+0 -37386-4 0  9991
2 16908  50.0065 144.6863 0011497 143.7021  37.5132 12.44498460320484
COSMOS 1989 (ETALON 1)  
1 19751U 89001C   22341.80930465  .00000000  00000+0  00000+0 0  9996
2 19751  64.3508 116.4214 0023915 213.7094  68.2695  2.13156250263929
COSMOS 2024 (ETALON 2)  
1 20026U 89039C   22342.01432078 -.00000064  00000+0  00000+0 0  9996
2 20026  65.5149 354.5004 0018675 218.7657 159.3279  2.13204395261055
LAGEOS 2                
1 22195U 92070B   22341.63118656 -.00000009  00000+0  00000+0 0  9993
2 22195  52.6781   0.3638 0138248 344.5030 165.0781  6.47293481712063
STELLA                  
1 22824U 93061B   22342.17827885 -.00000030  00000+0  66272-5 0  9997
2 22824  98.9511   7.3838 0006713  21.7564  74.8457 14.27395614521324
LARES                   
1 38077U 12006A   22341.70133292 -.00000030  00000+0  49700-4 0  9990
2 38077  69.4956 331.3844 0009727 192.0698 168.0153 12.54931387495647
